ONEWEB-0578             
1 56067U 23043X   26199.13815970  .00000026  00000+0  30295-4 0  9997
2 56067  87.9234 237.8133 0002076  85.7464 274.3907 13.21826495162322
ONEWEB-0579             
1 56068U 23043Y   26199.81099466  .00000067  00000+0  13124-3 0  9993
2 56068  87.9240 237.6779 0002088 102.6359 257.5008 13.21823963162422
ONEWEB-0581             
1 56069U 23043Z   26199.76499267  .00000042  00000+0  77115-4 0  9995
2 56069  87.9071 222.5111 0001497  92.6720 267.4582 13.16596002163110
ONEWEB-0609             
1 56070U 23043AA  26199.89729276  .00000051  00000+0  10183-3 0  9998
2 56070  87.8976 252.8926 0002151  97.0130 263.1245 13.15546953160606
ONEWEB-0613             
1 56071U 23043AB  26199.66674402  .00000054  00000+0  10947-3 0  9995
2 56071  87.8977 252.9510 0002227 102.9898 257.1481 13.15547876160575
ONEWEB-0630             
1 56072U 23043AC  26199.66198104 -.00000010  00000+0 -59441-4 0  9993
2 56072  87.8984 252.9256 0002209 103.0573 257.0804 13.15549581160565
ONEWEB-0632             
1 56073U 23043AD  26199.88541404  .00001247  00000+0  32785-2 0  9994
2 56073  87.8982 252.8977 0001946  97.2039 262.9313 13.15541969160596
ONEWEB-0633             
1 56074U 23043AE  26199.87907086 -.00000099  00000+0 -29670-3 0  9992
2 56074  87.8989 252.8769 0002483 102.8030 257.3378 13.15548714160576
ONEWEB-0634             
1 56075U 23043AF  26199.86481213 -.00000124  00000+0 -36269-3 0  9992
2 56075  87.8982 252.9172 0002247  89.7093 270.4294 13.15548449160566
ONEWEB-0635             
1 56076U 23043AG  26199.86005658 -.00000112  00000+0 -33060-3 0  9991
2 56076  87.8991 252.8834 0001793  97.0240 263.1094 13.15547939160595
ONEWEB-0636             
1 56077U 23043AH  26199.54790066 -.00000072  00000+0 -22542-3 0  9999
2 56077  87.8988 252.9511 0001847  96.9769 263.1571 13.15547662160536
ONEWEB-0637             
1 56078U 23043AJ  26199.69368200  .00002641  00000+0  69813-2 0  9990
2 56078  87.8985 252.9364 0002150  94.8950 265.2426 13.15534153160574
ONEWEB-0647             
1 56079U 23043AK  26199.84103648  .00000088  00000+0  20090-3 0  9999
2 56079  87.8983 252.9198 0001982 100.5912 259.5442 13.15549282160587
ONEWEB-0651             
1 56080U 23043AL  26199.91234952  .00000220  00000+0  55027-3 0  9998
2 56080  87.8980 252.8988 0001826  94.0243 266.1096 13.15548455161797
ONEWEB-0718             
1 56081U 23043AM  26199.14701211  .00000186  00000+0  46110-3 0  9995
2 56081  87.8988 253.0316 0002496  90.9648 269.1768 13.15549946160505
ONEWEB-0561             
1 56710U 23068A   26199.93976307  .00000087  00000+0  18105-3 0  9991
2 56710  87.9182 268.1162 0001792 105.8697 254.2634 13.20770885153698
ONEWEB-0668             
1 56711U 23068B   26199.51167321  .00000108  00000+0  24844-3 0  9995
2 56711  87.9075 222.5502 0002225  79.6384 280.4997 13.16595376155909
ONEWEB-0676             
1 56712U 23068C   26199.82355983  .00002209  00000+0  57404-2 0  9994
2 56712  87.9084 222.4941 0001901  95.3259 264.8089 13.16615090155861
ONEWEB-0677             
1 56713U 23068D   26199.92798956  .00000036  00000+0  57649-4 0  9996
2 56713  87.9178 268.1100 0001830  89.2156 270.9187 13.20771885153998
ONEWEB-0678             
1 56714U 23068E   26199.87590350 -.00000135  00000+0 -39157-3 0  9994
2 56714  87.8988 252.8816 0002105 104.8676 255.2688 13.15547995153458
ONEWEB-0679             
1 56715U 23068F   26199.78241640 -.00000058  00000+0 -18447-3 0  9993
2 56715  87.9079 222.4938 0001874  77.2148 282.9193 13.16594138155887
ONEWEB-0680             
1 56716U 23068G   26199.81268316  .00000043  00000+0  72665-4 0  9992
2 56716  87.9240 237.6792 0002159  78.9868 281.1509 13.21825775155273
ONEWEB-0681             
1 56717U 23068H   26199.86902560 -.00000044  00000+0 -13737-3 0  9991
2 56717  87.9237 237.6682 0001109 101.7193 258.4065 13.21827698155278
ONEWEB-0682             
1 56718U 23068J   26199.89967423  .00000085  00000+0  19261-3 0  9995
2 56718  87.8985 252.8771 0002109  83.2035 276.9336 13.15547758153628
ONEWEB-0683             
1 56719U 23068K   26199.69526417 -.00000042  00000+0 -14522-3 0  9998
2 56719  87.8994 252.9178 0002197  90.7639 269.3744 13.15548029153565
ONEWEB-0684             
1 56720U 23068L   26199.70318053 -.00000089  00000+0 -26959-3 0  9995
2 56720  87.8991 252.9059 0003148 116.2645 243.8809 13.15548942153394
ONEWEB-0686             
1 56721U 23068M   26199.81883846  .00000049  00000+0  93747-4 0  9999
2 56721  87.9069 222.5071 0002392  91.2270 268.9135 13.16593765155874
ONEWEB-0694             
1 56722U 23068N   26199.14119958  .00000034  00000+0  55738-4 0  9994
2 56722  87.9091 222.6124 0002232  81.7958 278.3426 13.16593107155845
ONEWEB-0696             
1 56723U 23068P   26199.58433763 -.00000039  00000+0 -13823-3 0  9991
2 56723  87.8975 252.9658 0002129 110.6009 249.5349 13.15549568153492
ONEWEB-0703             
1 56724U 23068Q   26199.66991051  .00000110  00000+0  25907-3 0  9994
2 56724  87.8980 252.9300 0001873 123.6790 236.4519 13.15548119153393
