OBJECT_NAME,OBJECT_ID,EPOCH,MEAN_MOTION,ECCENTRICITY,INCLINATION,RA_OF_ASC_NODE,ARG_OF_PERICENTER,MEAN_ANOMALY,EPHEMERIS_TYPE,CLASSIFICATION_TYPE,NORAD_CAT_ID,ELEMENT_SET_NO,REV_AT_EPOCH,BSTAR,MEAN_MOTION_DOT,MEAN_MOTION_DDOT
ONEWEB-0578,2023-043X,2026-07-18T03:18:56.998080,13.21826495,.0002076,87.9234,237.8133,85.7464,274.3907,0,U,56067,999,16232,.30295312E-4,.26E-6,0
ONEWEB-0579,2023-043Y,2026-07-18T19:27:49.938624,13.21823963,.00020881,87.9240,237.6779,102.6359,257.5008,0,U,56068,999,16242,.13124401E-3,.67E-6,0
ONEWEB-0581,2023-043Z,2026-07-18T18:21:35.366688,13.16596002,.00014976,87.9071,222.5111,92.6720,267.4582,0,U,56069,999,16311,.77114807E-4,.42E-6,0
ONEWEB-0609,2023-043AA,2026-07-18T21:32:06.094464,13.15546953,.00021517,87.8976,252.8926,97.0130,263.1245,0,U,56070,999,16060,.10182683E-3,.51E-6,0
ONEWEB-0613,2023-043AB,2026-07-18T16:00:06.683328,13.15547876,.00022278,87.8977,252.9510,102.9898,257.1481,0,U,56071,999,16057,.1094682E-3,.54E-6,0
ONEWEB-0630,2023-043AC,2026-07-18T15:53:15.161856,13.15549581,.00022095,87.8984,252.9256,103.0573,257.0804,0,U,56072,999,16056,-.59440582E-4,-.1E-6,0
ONEWEB-0632,2023-043AD,2026-07-18T21:14:59.773056,13.15541969,.00019468,87.8982,252.8977,97.2039,262.9313,0,U,56073,999,16059,.32785064E-2,.1247E-4,0
ONEWEB-0633,2023-043AE,2026-07-18T21:05:51.722304,13.15548714,.00024833,87.8989,252.8769,102.8030,257.3378,0,U,56074,999,16057,-.2967048E-3,-.99E-6,0
ONEWEB-0634,2023-043AF,2026-07-18T20:45:19.768032,13.15548449,.00022472,87.8982,252.9172,89.7093,270.4294,0,U,56075,999,16056,-.36268749E-3,-.124E-5,0
ONEWEB-0635,2023-043AG,2026-07-18T20:38:28.888512,13.15547939,.00017931,87.8991,252.8834,97.0240,263.1094,0,U,56076,999,16059,-.33060259E-3,-.112E-5,0
ONEWEB-0636,2023-043AH,2026-07-18T13:08:58.617024,13.15547662,.0001847,87.8988,252.9511,96.9769,263.1571,0,U,56077,999,16053,-.22542E-3,-.72E-6,0
ONEWEB-0637,2023-043AJ,2026-07-18T16:38:54.124800,13.15534153,.00021509,87.8985,252.9364,94.8950,265.2426,0,U,56078,999,16057,.69813146E-2,.2641E-4,0
ONEWEB-0647,2023-043AK,2026-07-18T20:11:05.551872,13.15549282,.00019823,87.8983,252.9198,100.5912,259.5442,0,U,56079,999,16058,.20089664E-3,.88E-6,0
ONEWEB-0651,2023-043AL,2026-07-18T21:53:46.998528,13.15548455,.00018264,87.8980,252.8988,94.0243,266.1096,0,U,56080,999,16179,.55027391E-3,.22E-5,0
ONEWEB-0718,2023-043AM,2026-07-18T03:31:41.846304,13.15549946,.00024968,87.8988,253.0316,90.9648,269.1768,0,U,56081,999,16050,.4610992E-3,.186E-5,0
ONEWEB-0561,2023-068A,2026-07-18T22:33:15.529248,13.20770885,.00017923,87.9182,268.1162,105.8697,254.2634,0,U,56710,999,15369,.18104945E-3,.87E-6,0
ONEWEB-0668,2023-068B,2026-07-18T12:16:48.565344,13.16595376,.00022257,87.9075,222.5502,79.6384,280.4997,0,U,56711,999,15590,.24844112E-3,.108E-5,0
ONEWEB-0676,2023-068C,2026-07-18T19:45:55.569312,13.16615090,.00019013,87.9084,222.4941,95.3259,264.8089,0,U,56712,999,15586,.57404462E-2,.2209E-4,0
ONEWEB-0677,2023-068D,2026-07-18T22:16:18.297984,13.20771885,.00018308,87.9178,268.1100,89.2156,270.9187,0,U,56713,999,15399,.57648552E-4,.36E-6,0
ONEWEB-0678,2023-068E,2026-07-18T21:01:18.062400,13.15547995,.0002105,87.8988,252.8816,104.8676,255.2688,0,U,56714,999,15345,-.39157349E-3,-.135E-5,0
ONEWEB-0679,2023-068F,2026-07-18T18:46:40.776960,13.16594138,.00018743,87.9079,222.4938,77.2148,282.9193,0,U,56715,999,15588,-.18446654E-3,-.58E-6,0
ONEWEB-0680,2023-068G,2026-07-18T19:30:15.825024,13.21825775,.00021599,87.9240,237.6792,78.9868,281.1509,0,U,56716,999,15527,.72664769E-4,.43E-6,0
ONEWEB-0681,2023-068H,2026-07-18T20:51:23.811840,13.21827698,.00011092,87.9237,237.6682,101.7193,258.4065,0,U,56717,999,15527,-.1373732E-3,-.44E-6,0
ONEWEB-0682,2023-068J,2026-07-18T21:35:31.853472,13.15547758,.00021097,87.8985,252.8771,83.2035,276.9336,0,U,56718,999,15362,.19260542E-3,.85E-6,0
ONEWEB-0683,2023-068K,2026-07-18T16:41:10.824288,13.15548029,.00021979,87.8994,252.9178,90.7639,269.3744,0,U,56719,999,15356,-.14521515E-3,-.42E-6,0
ONEWEB-0684,2023-068L,2026-07-18T16:52:34.797792,13.15548942,.00031486,87.8991,252.9059,116.2645,243.8809,0,U,56720,999,15339,-.26958985E-3,-.89E-6,0
ONEWEB-0686,2023-068M,2026-07-18T19:39:07.642944,13.16593765,.00023929,87.9069,222.5071,91.2270,268.9135,0,U,56721,999,15587,.93746528E-4,.49E-6,0
ONEWEB-0694,2023-068N,2026-07-18T03:23:19.643712,13.16593107,.00022329,87.9091,222.6124,81.7958,278.3426,0,U,56722,999,15584,.55738059E-4,.34E-6,0
ONEWEB-0696,2023-068P,2026-07-18T14:01:26.771232,13.15549568,.0002129,87.8975,252.9658,110.6009,249.5349,0,U,56723,999,15349,-.13823E-3,-.39E-6,0
ONEWEB-0703,2023-068Q,2026-07-18T16:04:40.268064,13.15548119,.00018733,87.8980,252.9300,123.6790,236.4519,0,U,56724,999,15339,.25906846E-3,.11E-5,0
